{
  "links" : {
    "next" : "https://api.nasa.gov/neo/rest/v1/feed?start_date=2005-04-16&end_date=2005-04-16&detailed=true&api_key=t0TVs3DtDT2H8Oy2Zy8m2eVrNsAVKAexjcZXUckd",
    "prev" : "https://api.nasa.gov/neo/rest/v1/feed?start_date=2005-04-14&end_date=2005-04-14&detailed=true&api_key=t0TVs3DtDT2H8Oy2Zy8m2eVrNsAVKAexjcZXUckd",
    "self" : "https://api.nasa.gov/neo/rest/v1/feed?start_date=2005-04-15&end_date=2005-04-15&detailed=true&api_key=t0TVs3DtDT2H8Oy2Zy8m2eVrNsAVKAexjcZXUckd"
  },
  "element_count" : 9,
  "near_earth_objects" : {
    "2005-04-15" : [ {
      "links" : {
        "self" : "https://api.nasa.gov/neo/rest/v1/neo/2162694?api_key=t0TVs3DtDT2H8Oy2Zy8m2eVrNsAVKAexjcZXUckd"
      },
      "neo_reference_id" : "2162694",
      "name" : "162694 (2000 UH11)",
      "nasa_jpl_url" : "http://ssd.jpl.nasa.gov/sbdb.cgi?sstr=2162694",
      "absolute_magnitude_h" : 19.6,
      "estimated_diameter" : {
        "kilometers" : {
          "estimated_diameter_min" : 0.3195618867,
          "estimated_diameter_max" : 0.7145621017
        },
        "meters" : {
          "estimated_diameter_min" : 319.5618867213,
          "estimated_diameter_max" : 714.5621017269
        },
        "miles" : {
          "estimated_diameter_min" : 0.1985664891,
          "estimated_diameter_max" : 0.4440081677
        },
        "feet" : {
          "estimated_diameter_min" : 1048.4314204307,
          "estimated_diameter_max" : 2344.3639258298
        }
      },
      "is_potentially_hazardous_asteroid" : false,
      "close_approach_data" : [ {
        "close_approach_date" : "2005-04-15",
        "epoch_date_close_approach" : 1113548400000,
        "relative_velocity" : {
          "kilometers_per_second" : "29.3835517712",
          "kilometers_per_hour" : "105780.7863762772",
          "miles_per_hour" : "65728.0669569707"
        },
        "miss_distance" : {
          "astronomical" : "0.4984939993",
          "lunar" : "193.9141693115",
          "kilometers" : "74573640",
          "miles" : "46337912"
        },
        "orbiting_body" : "Earth"
      } ],
      "orbital_data" : {
        "orbit_id" : "32",
        "orbit_determination_date" : "2017-09-24 06:23:56",
        "orbit_uncertainty" : "0",
        "minimum_orbit_intersection" : ".22486",
        "jupiter_tisserand_invariant" : "6.606",
        "epoch_osculation" : "2458000.5",
        "eccentricity" : ".4224555943413243",
        "semi_major_axis" : ".8702809086347039",
        "inclination" : "32.22691479429755",
        "ascending_node_longitude" : "29.79498678119862",
        "orbital_period" : "296.5429554833809",
        "perihelion_distance" : ".5026258701335222",
        "perihelion_argument" : "187.3922816371673",
        "aphelion_distance" : "1.237935947135886",
        "perihelion_time" : "2457928.629332034878",
        "mean_anomaly" : "87.25022796535129",
        "mean_motion" : "1.213989384482868",
        "equinox" : "J2000"
      }
    }, {
      "links" : {
        "self" : "https://api.nasa.gov/neo/rest/v1/neo/2434326?api_key=t0TVs3DtDT2H8Oy2Zy8m2eVrNsAVKAexjcZXUckd"
      },
      "neo_reference_id" : "2434326",
      "name" : "434326 (2004 JG6)",
      "nasa_jpl_url" : "http://ssd.jpl.nasa.gov/sbdb.cgi?sstr=2434326",
      "absolute_magnitude_h" : 18.4,
      "estimated_diameter" : {
        "kilometers" : {
          "estimated_diameter_min" : 0.5553349116,
          "estimated_diameter_max" : 1.2417666126
        },
        "meters" : {
          "estimated_diameter_min" : 555.334911581,
          "estimated_diameter_max" : 1241.766612574
        },
        "miles" : {
          "estimated_diameter_min" : 0.3450690093,
          "estimated_diameter_max" : 0.7715977618
        },
        "feet" : {
          "estimated_diameter_min" : 1821.9649913114,
          "estimated_diameter_max" : 4074.0375731972
        }
      },
      "is_potentially_hazardous_asteroid" : true,
      "close_approach_data" : [ {
        "close_approach_date" : "2005-04-15",
        "epoch_date_close_approach" : 1113548400000,
        "relative_velocity" : {
          "kilometers_per_second" : "14.18553176",
          "kilometers_per_hour" : "51067.9143358999",
          "miles_per_hour" : "31731.6159938818"
        },
        "miss_distance" : {
          "astronomical" : "0.1677776413",
          "lunar" : "65.2655029297",
          "kilometers" : "25099178",
          "miles" : "15595906"
        },
        "orbiting_body" : "Earth"
      } ],
      "orbital_data" : {
        "orbit_id" : "33",
        "orbit_determination_date" : "2017-04-06 09:20:49",
        "orbit_uncertainty" : "1",
        "minimum_orbit_intersection" : ".03814",
        "jupiter_tisserand_invariant" : "8.751",
        "epoch_osculation" : "2458000.5",
        "eccentricity" : ".5311980211575074",
        "semi_major_axis" : ".6352164510266495",
        "inclination" : "18.94493054984403",
        "ascending_node_longitude" : "37.03187445787724",
        "orbital_period" : "184.9187855050641",
        "perihelion_distance" : ".2977907292345986",
        "perihelion_argument" : "352.9927365644639",
        "aphelion_distance" : ".9726421728187004",
        "perihelion_time" : "2458023.337663671835",
        "mean_anomaly" : "315.5396229787827",
        "mean_motion" : "1.946800586088324",
        "equinox" : "J2000"
      }
    }, {
      "links" : {
        "self" : "https://api.nasa.gov/neo/rest/v1/neo/2438107?api_key=t0TVs3DtDT2H8Oy2Zy8m2eVrNsAVKAexjcZXUckd"
      },
      "neo_reference_id" : "2438107",
      "name" : "438107 (2005 GY110)",
      "nasa_jpl_url" : "http://ssd.jpl.nasa.gov/sbdb.cgi?sstr=2438107",
      "absolute_magnitude_h" : 18.2,
      "estimated_diameter" : {
        "kilometers" : {
          "estimated_diameter_min" : 0.6089126221,
          "estimated_diameter_max" : 1.3615700154
        },
        "meters" : {
          "estimated_diameter_min" : 608.9126221057,
          "estimated_diameter_max" : 1361.5700153859
        },
        "miles" : {
          "estimated_diameter_min" : 0.3783606449,
          "estimated_diameter_max" : 0.846040122
        },
        "feet" : {
          "estimated_diameter_min" : 1997.7448871092,
          "estimated_diameter_max" : 4467.0933692788
        }
      },
      "is_potentially_hazardous_asteroid" : false,
      "close_approach_data" : [ {
        "close_approach_date" : "2005-04-15",
        "epoch_date_close_approach" : 1113548400000,
        "relative_velocity" : {
          "kilometers_per_second" : "26.585989607",
          "kilometers_per_hour" : "95709.5625851402",
          "miles_per_hour" : "59470.2001518612"
        },
        "miss_distance" : {
          "astronomical" : "0.3022442629",
          "lunar" : "117.5730209351",
          "kilometers" : "45215100",
          "miles" : "28095360"
        },
        "orbiting_body" : "Earth"
      } ],
      "orbital_data" : {
        "orbit_id" : "32",
        "orbit_determination_date" : "2017-04-06 09:20:36",
        "orbit_uncertainty" : "0",
        "minimum_orbit_intersection" : ".213705",
        "jupiter_tisserand_invariant" : "3.661",
        "epoch_osculation" : "2458000.5",
        "eccentricity" : ".6862369832070461",
        "semi_major_axis" : "1.848786382092406",
        "inclination" : "12.63845418894629",
        "ascending_node_longitude" : "294.6717323170823",
        "orbital_period" : "918.1814768226099",
        "perihelion_distance" : ".5800807926510443",
        "perihelion_argument" : "169.0828660152063",
        "aphelion_distance" : "3.117491971533769",
        "perihelion_time" : "2458020.710898507416",
        "mean_anomaly" : "352.0757239757785",
        "mean_motion" : ".3920793536870174",
        "equinox" : "J2000"
      }
    } ]
  }
}